#aV2021  2  9  0  0  0.00000000     288 DD+AD WGS84 FIT  NGA
## 2144 172800.00000000   300.00000000 59254 0.0000000000000
+   32     1  2  3  4  5  6  7  8  9 10 11 12 13 14 15 16 17
+         18 19 20 21 22 23 24 25 26 27 28 29 30 31 32  0  0
+          0  0  0  0  0  0  0  0  0  0  0  0  0  0  0  0  0
+          0  0  0  0  0  0  0  0  0  0  0  0  0  0  0  0  0
+          0  0  0  0  0  0  0  0  0  0  0  0  0  0  0  0  0
++         2  2  2  2  2  2  2  2  2  2  2  2  2  2  2  2  2
++         2  2  2  2  2  2  2  2  2  2  2  2  2  2  2  0  0
++         0  0  0  0  0  0  0  0  0  0  0  0  0  0  0  0  0
++         0  0  0  0  0  0  0  0  0  0  0  0  0  0  0  0  0
++         0  0  0  0  0  0  0  0  0  0  0  0  0  0  0  0  0
%c cc cc ccc ccc cccc cccc cccc cccc ccccc ccccc ccccc ccccc
%c cc cc ccc ccc cccc cccc cccc cccc ccccc ccccc ccccc ccccc
%f  0.0000000  0.000000000  0.00000000000  0.000000000000000
%f  0.0000000  0.000000000  0.00000000000  0.000000000000000
%i    0    0    0    0      0      0      0      0         0
%i    0    0    0    0      0      0      0      0         0
/*      NGA, ST. LOUIS,MO.                                  
/*   EPHEMERIS COMPUTED FROM 2 DAYS OF DATA                 
/*   EPOCHA v5 SMOOTHER                                     
/*   G2139 IERS2010 SATAF SATAPC                            
*  2021  2  9 16 10  0.00000000
P  1 -21644.502985 -14670.339121  -5848.359180    764.550143                    
V  1   7084.655680   1472.831826 -30881.306573     -0.074979                    
P  2   1809.174759  16601.567553  21310.818281   -575.101525                    
V  2 -24124.240825  -8461.677974   8942.336762     -0.039840                    
P  3 -12767.106183 -16471.903810  16446.947178    -78.559812                    
V  3   -148.363941 -21038.407742 -20982.804311     -0.100893                    
P  4 -14545.797816  -7881.358754  20792.747726   -179.040342                    
V  4  21666.961259 -15076.084081   9392.174832     -0.027002                    
P  5   3559.545175  26218.299416   -509.828403    -33.245886                    
V  5  -3066.811884    848.948841  31746.061384     -0.010318                    
P  6 -12445.112996   9902.408112  21346.801035     -3.276586                    
V  6 -24119.905957 -11876.390009  -8528.025765      0.009609                    
P  7 -24858.668871  -5543.465027  -8031.033455     52.759407                    
V  7  -8390.540282  -6863.245678  29000.478171      0.135665                    
P  8  -8070.854880 -12716.033555 -21860.648194     -9.679582                    
V  8  22609.083232 -16113.130099   1315.939580     -0.014292                    
P  9 -21995.847112   3238.479971  14483.849307   -321.293922                    
V  9  13653.648114 -12702.767189  23451.221981     -0.036394                    
P 10  12115.425181 -13387.116331 -19277.515523    -57.855351                    
V 10   3562.065041  24559.053345 -14993.504546     -0.082293                    
P 11 -16699.513967 -12264.034889 -16878.753932    -29.328083                    
V 11  20743.024452  -3638.068668 -18739.459028      0.106327                    
P 12   9502.159560  20690.427977  13555.995312      1.220734                    
V 12  -1561.593976  17566.524168 -25109.935871     -0.052738                    
P 13  -3466.798972  17289.294712 -19960.449300     95.313959                    
V 13 -22741.329613  10593.374079  13334.434067      0.042821                    
P 14 -13454.807365  11501.861673 -19810.126675     95.550793                    
V 14  -2211.704303 -25072.781548 -13068.744510      0.031477                    
P 15  10281.722236  12349.591684 -21496.395295   -170.553722                    
V 15 -20102.245559  17434.220059    768.307539      0.025834                    
P 16    548.230430 -26281.423075    666.752022   -277.616708                    
V 16   2761.918810   1152.065233  32370.631047     -0.056677                    
P 17 -22107.636792  14679.666863   1400.965368    391.278546                    
V 17  -2166.151543  -1136.995305 -32181.621313      0.065710                    
P 18  23874.069616   3119.839705 -11282.683272    346.457088                    
V 18  11826.395463   8323.460944  27277.811043      0.019204                    
P 19 -18748.116338  16691.524966   8255.406887    -40.713089                    
V 19 -10552.103365   3398.974833 -29905.207859      0.050066                    
P 20  15956.957415   -479.541250 -21303.110650    524.773188                    
V 20   5826.028372  26355.478528   3508.987404     -0.001693                    
P 21 -17400.790954 -15777.281912 -12065.885388     94.155315                    
V 21  16108.535015   3619.679204 -25952.687028      0.032299                    
P 22 -10991.028101 -22580.224358   9101.259384   -682.529699                    
V 22   1056.045734 -11659.858717 -28101.011869      0.073377                    
P 23  15086.697970  -1586.863613 -21824.113384    118.217828                    
V 23   3090.668099  27475.967908    100.038784      0.004249                    
P 24  19074.359643  15699.283757 -10498.433865      2.551450                    
V 24 -13046.647982  -2037.260763 -26986.608661     -0.006102                    
P 25  15019.309318   6780.080635  20632.933944     77.097436                    
V 25   1577.731018  26680.187240  -9522.705223      0.076919                    
P 26   5528.494415 -23079.549796  11601.212579     42.451069                    
V 26   4920.452817  14432.424287  26518.020315      0.055384                    
P 27   5407.869654 -18683.537973 -18071.379147    -73.013314                    
V 27  19470.094029 -11822.878775  18562.682485     -0.074831                    
P 28 -12266.410578  14726.387805 -17908.712328    617.936372                    
V 28  -1230.018867 -23795.012983 -17979.229935     -0.053808                    
P 29  21906.516645  -1550.364627  14927.531018   -291.824724                    
V 29 -15505.759318  11016.997373  23795.603122     -0.070651                    
P 30 -19717.037113   4357.245959 -17319.259364   -382.174524                    
V 30 -18840.908423 -11668.706305  18241.435870     -0.058201                    
P 31  10559.269597 -11617.217183  21393.633821    -99.071218                    
V 31  24322.819518  12429.293290  -4777.126186     -0.023014                    
P 32  20817.527140 -16264.772006   1716.523987     18.120717                    
V 32   3467.368314   1294.967362 -31689.996251      0.014370                    
EOF
